CCSDS_OMM_VERS,COMMENT,CREATION_DATE,ORIGINATOR,OBJECT_NAME,OBJECT_ID,CENTER_NAME,REF_FRAME,TIME_SYSTEM,MEAN_ELEMENT_THEORY,EPOCH,MEAN_MOTION,ECCENTRICITY,INCLINATION,RA_OF_ASC_NODE,ARG_OF_PERICENTER,MEAN_ANOMALY,EPHEMERIS_TYPE,CLASSIFICATION_TYPE,NORAD_CAT_ID,ELEMENT_SET_NO,REV_AT_EPOCH,BSTAR,MEAN_MOTION_DOT,MEAN_MOTION_DDOT,SEMIMAJOR_AXIS,PERIOD,APOAPSIS,PERIAPSIS,OBJECT_TYPE,RCS_SIZE,COUNTRY_CODE,LAUNCH_DATE,SITE,DECAY_DATE,FILE,GP_ID,TLE_LINE0,TLE_LINE1,TLE_LINE2
3.0,GENERATED VIA SPACE-TRACK.ORG API,2005-05-02T23:40:10,18 SPCS,COSMOS 2021,1989-037A,EARTH,TEME,UTC,SGP4,1989-07-06T21:47:29.493600,16.0848448,0.0058787,69.9395,311.9322,146.2085,214.3386,0,U,20000,999,700,0.0001722,0.00189081,4.5e-06,6629.145,89.525,289.981,212.039,PAYLOAD,,,,,1989-07-06,131042,44078920,0 COSMOS 2021,1 20000U 89037  A 89187.90798025  .00189081 +45000-5 +17220-3 0  9998,2 20000 069.9395 311.9322 0058787 146.2085 214.3386 16.08484480007004
3.0,GENERATED VIA SPACE-TRACK.ORG API,2010-08-05T10:41:46,18 SPCS,BREEZE-M DEB,2009-042AE,EARTH,TEME,UTC,SGP4,2010-08-05T10:09:14.231232,15.35856651,0.0167622,46.8884,329.9353,323.2689,35.2635,0,U,36775,999,508,0.23553,0.13562365,0.0,6836.518,93.758,572.978,343.788,DEBRIS,SMALL,CIS,2009-08-11,TTMTR,2010-08-06,940008,78951489,0 BREEZE-M DEB,1 36775U 09042AE  10217.42308138  .13562365  00000-0  23553+0 0  9991,2 36775 046.8884 329.9353 0167622 323.2689 035.2635 15.35856651  5081
3.0,GENERATED VIA SPACE-TRACK.ORG API,2004-08-16T23:24:14,18 SPCS,SL-4 R/B,1986-033B,EARTH,TEME,UTC,SGP4,1986-05-29T00:48:02.193407,16.48287779,0.0013058,72.8683,29.5576,43.7384,316.5699,0,U,16718,999,234,0.00037045,0.26952562,9.3935e-06,6521.989,87.363,152.37,135.338,ROCKET BODY,,,,,1986-05-29,34511,15029736,0 SL-4 R/B,1 16718U 86033B   86149.03335872  .26952562 +93935-5 +37045-3 0  9995,2 16718 072.8683 029.5576 0013058 043.7384 316.5699 16.48287779002346
3.0,GENERATED VIA SPACE-TRACK.ORG API,2004-08-16T23:23:02,18 SPCS,SALYUT 7 DEB,1982-033DP,EARTH,TEME,UTC,SGP4,1985-02-14T10:10:20.362655,16.36974429,0.0009765,51.5901,203.5392,306.3473,57.0088,0,U,15283,999,16313,0.00091965,0.09055508,5.5166e-05,6552.004,87.967,180.267,167.471,DEBRIS,MEDIUM,CIS,1982-04-19,TTMTR,1985-02-14,34487,14510617,0 SALYUT 7 DEB,1 15283U 82033 DP 85045.42384679  .09055508 +55166-4 +91965-3 0  9992,2 15283 051.5901 203.5392 0009765 306.3473 057.0088 16.36974429163132
3.0,GENERATED VIA SPACE-TRACK.ORG API,2010-09-17T08:18:46,18 SPCS,BREEZE-M DEB,2009-042AK,EARTH,TEME,UTC,SGP4,2010-09-15T23:10:06.916512,14.88164402,0.0355779,49.1588,172.2004,81.8686,281.7264,0,U,36780,999,1142,0.15193,0.05502756,0.0,6981.812,96.763,852.075,355.279,DEBRIS,SMALL,CIS,2009-08-11,TTMTR,2010-09-21,963445,79580388,0 BREEZE-M DEB,1 36780U 09042AK  10258.96535783 +.05502756 +00000-0 +15193-0 0  9990,2 36780 049.1588 172.2004 0355779 081.8686 281.7264 14.88164402011426
3.0,GENERATED VIA SPACE-TRACK.ORG API,2014-04-18T15:56:56,18 SPCS,IRIDIUM 33 DEB,1997-051YH,EARTH,TEME,UTC,SGP4,2014-04-16T11:05:40.439040,15.45701334,0.0025121,86.2231,14.3778,119.7614,233.4315,0,U,38021,999,23493,0.040007,0.02199793,0.0,6807.459,93.161,446.425,412.223,DEBRIS,SMALL,US,1997-09-14,TTMTR,2014-04-23,1668214,95715118,0 IRIDIUM 33 DEB,1 38021U 97051YH  14106.46227360  .02199793  00000-0  40007-1 0  9990,2 38021 086.2231 014.3778 0025121 119.7614 233.4315 15.45701334234933
3.0,GENERATED VIA SPACE-TRACK.ORG API,2004-08-16T23:25:53,18 SPCS,ARIANE 1 DEB,1986-019W,EARTH,TEME,UTC,SGP4,1987-12-10T00:30:01.948031,15.81778598,0.0034015,99.1849,127.7303,344.4171,16.0536,0,U,17127,999,9641,0.020037,0.04192234,0.0,6703.552,91.036,348.219,302.614,DEBRIS,MEDIUM,FR,1986-02-22,FRGUI,1987-12-19,34544,15710093,0 ARIANE 1 DEB,1 17127U 86019  W 87344.02085588  .04192234 +00000-0 +20037-1 0  9992,2 17127 099.1849 127.7303 0034015 344.4171 016.0536 15.81778598096410
3.0,GENERATED VIA SPACE-TRACK.ORG API,2004-08-15T23:35:50,18 SPCS,SL-3 R/B,1967-093B,EARTH,TEME,UTC,SGP4,1967-10-01T16:57:08.830943,16.19272087,0.008292,72.8535,150.9363,37.1175,323.5642,0,U,2968,999,85,0.0,0.00999999,0.0,6599.67,88.928,276.259,166.81,ROCKET BODY,,,,,1967-10-05,33915,8757652,0 SL-3 R/B,1 02968U 67093  B 67274.70635221  .00999999 +00000-0 +00000-0 0  9996,2 02968 072.8535 150.9363 0082920 037.1175 323.5642 16.19272087000850
3.0,GENERATED VIA SPACE-TRACK.ORG API,2004-08-15T23:39:50,18 SPCS,DELTA 1 R/B,1965-007B,EARTH,TEME,UTC,SGP4,1977-09-10T16:20:05.234496,16.27656867,0.0006538,32.856,151.9585,271.3599,90.0331,0,U,988,999,70048,0.0012421,0.09773393,0.0,6576.985,88.47,203.15,194.55,ROCKET BODY,MEDIUM,US,1965-02-03,AFETR,1977-09-11,33995,9829861,0 DELTA 1 R/B,1 00988U 65007  B 77253.68061614  .09773393 +00000-0 +12421-2 0  9992,2 00988 032.8560 151.9585 0006538 271.3599 090.0331 16.27656867700482
3.0,GENERATED VIA SPACE-TRACK.ORG API,2004-08-17T15:09:30,18 SPCS,PEGASUS DEB,1994-029PT,EARTH,TEME,UTC,SGP4,1997-08-02T04:13:56.403264,15.75294283,0.0049959,81.8052,112.5866,266.6116,107.2397,0,U,24366,999,17219,0.015221,0.02880132,0.0,6721.935,91.411,377.382,310.218,DEBRIS,SMALL,US,1994-05-19,AFWTR,1997-08-05,35239,25439605,0 PEGASUS DEB,1 24366U 94029PT  97214.17634726  .02880132  00000-0  15221-1 0  9990,2 24366 081.8052 112.5866 0049959 266.6116 107.2397 15.75294283172195
3.0,GENERATED VIA SPACE-TRACK.ORG API,2004-08-16T23:25:53,18 SPCS,COSMOS 1887 DEB,1987-083C,EARTH,TEME,UTC,SGP4,1987-11-07T16:57:36.974880,16.39550487,0.0015588,62.8101,355.9507,101.8059,257.0484,0,U,18398,999,628,0.0003751,0.0509471,3.978e-05,6545.139,87.828,177.207,156.802,DEBRIS,,,,,1987-11-08,34544,15656502,0 COSMOS 1887 DEB,1 18398U 87083  C 87311.70667795  .05094710 +39780-4 +37510-3 0  9998,2 18398 062.8101 355.9507 0015588 101.8059 257.0484 16.39550487006288
3.0,GENERATED VIA SPACE-TRACK.ORG API,2004-08-15T23:44:02,18 SPCS,COSMOS 880 DEB,1976-120AD,EARTH,TEME,UTC,SGP4,1979-06-19T20:03:03.399264,15.51179123,0.0012535,65.7591,109.7031,203.3539,156.6997,0,U,11202,999,13787,0.0,0.00491394,0.0,6791.423,92.832,421.801,404.775,DEBRIS,,,,,1979-07-13,34079,11007291,0 COSMOS 880 DEB,1 11202U 76120 AD 79170.83545601  .00491394 +00000-0 +00000-0 0  9998,2 11202 065.7591 109.7031 0012535 203.3539 156.6997 15.51179123137877
3.0,GENERATED VIA SPACE-TRACK.ORG API,2024-12-03T04:02:00,18 SPCS,DMSP 5D-2 F13 DEB,1995-015HU,EARTH,TEME,UTC,SGP4,2024-11-28T10:48:57.400704,15.41649771,0.0021546,98.6308,54.0972,300.8923,59.0201,0,U,42302,999,48969,0.039247,0.01846638,0.0,6819.377,93.406,455.935,426.549,DEBRIS,SMALL,US,1995-03-24,AFWTR,2024-12-10,4569792,274599096,0 DMSP 5D-2 F13 DEB,1 42302U 95015HU  24333.45066436  .01846638  00000-0  39247-1 0  9992,2 42302  98.6308  54.0972 0021546 300.8923  59.0201 15.41649771489695
3.0,GENERATED VIA SPACE-TRACK.ORG API,2004-08-15T23:35:47,18 SPCS,SL-8 DEB,1965-020CM,EARTH,TEME,UTC,SGP4,1966-02-21T18:29:33.760895,15.39165928,0.0284501,55.9971,162.2636,20.1027,341.0739,0,U,1541,999,4933,0.0,0.0074776,0.00077847,6826.715,93.557,642.801,254.36,DEBRIS,,,,,1966-03-20,33914,8713108,0 SL-8 DEB,1 01541U 65020 CM 66052.77052964  .00747760 +77847-3 +00000-0 0  9990,2 01541 055.9971 162.2636 0284501 020.1027 341.0739 15.39165928049332
3.0,GENERATED VIA SPACE-TRACK.ORG API,2004-08-15T23:41:50,18 SPCS,COSMOS 913 DEB,1977-042N,EARTH,TEME,UTC,SGP4,1978-02-14T21:26:54.285504,15.78304293,0.0005988,74.0219,39.0698,106.5334,253.6065,0,U,10337,999,3980,0.0,0.01494932,0.0,6713.386,91.237,339.271,331.231,DEBRIS,MEDIUM,CIS,1977-05-30,PKMTR,1978-02-23,34035,10490152,0 COSMOS 913 DEB,1 10337U 77042  N 78045.89368386  .01494932 +00000-0 +00000-0 0  9991,2 10337 074.0219 039.0698 0005988 106.5334 253.6065 15.78304293039805
3.0,GENERATED VIA SPACE-TRACK.ORG API,2022-11-17T18:40:42,18 SPCS,FENGYUN 1C DEB,1999-025CJV,EARTH,TEME,UTC,SGP4,2022-11-17T01:50:27.299040,15.18545288,0.0142964,96.6824,77.7889,31.7194,329.2557,0,U,31855,999,47557,0.00085224,0.00023062,0.0,6888.373,94.828,608.717,411.759,DEBRIS,SMALL,PRC,1999-05-10,TSC,2023-06-07,3661693,218053212,0 FENGYUN 1C DEB,1 31855U 99025CJV 22321.07670485  .00023062  00000-0  85224-3 0  9991,2 31855  96.6824  77.7889 0142964  31.7194 329.2557 15.18545288475574
3.0,GENERATED VIA SPACE-TRACK.ORG API,2004-08-17T15:12:24,18 SPCS,COSMOS 2306 DEB,1995-008C,EARTH,TEME,UTC,SGP4,1997-10-11T01:49:19.405055,16.15271272,0.0011633,65.8278,173.7889,226.4851,137.0063,0,U,23507,999,14630,0.0062739,0.05961174,0.10533,6610.563,89.149,240.118,224.738,DEBRIS,SMALL,CIS,1995-03-02,PKMTR,1997-10-11,35297,25976553,0 COSMOS 2306 DEB,1 23507U 95008C   97284.07591904 +.05961174 +10533-0 +62739-2 0  9998,2 23507 065.8278 173.7889 0011633 226.4851 137.0063 16.15271272146308
3.0,GENERATED VIA SPACE-TRACK.ORG API,2025-02-14T16:56:16,18 SPCS,STARLINK-1028,2019-074W,EARTH,TEME,UTC,SGP4,2025-02-14T14:06:59.215968,16.43988078,0.0005062,53.0321,81.6297,225.0418,277.7017,0,U,44733,999,29107,0.00049942,0.13478033,1.2412e-05,6533.352,87.592,158.524,151.91,PAYLOAD,LARGE,US,2019-11-11,AFETR,2025-02-14,4640715,280702201,0 STARLINK-1028,1 44733U 19074W   25045.58818537  .13478033  12412-4  49942-3 0  9997,2 44733  53.0321  81.6297 0005062 225.0418 277.7017 16.43988078291079
3.0,GENERATED VIA SPACE-TRACK.ORG API,2024-11-10T21:36:58,18 SPCS,THORAD AGENA D DEB,1970-025PH,EARTH,TEME,UTC,SGP4,2024-11-09T20:23:43.528704,15.75965373,0.0029595,98.9922,282.6523,161.4005,198.8344,0,U,17719,999,3642,0.060103,0.11820009,0.0,6720.023,91.373,361.775,322.0,DEBRIS,SMALL,US,1970-04-08,AFWTR,2024-11-14,4549736,272818115,0 THORAD AGENA D DEB,1 17719U 70025PH  24314.84980936  .11820009  00000-0  60103-1 0  9992,2 17719  98.9922 282.6523 0029595 161.4005 198.8344 15.75965373 36424
